satname,norad_id,inclination_deg,eccentricity,mean_motion_rev_per_day,perigee_km,apogee_km,l1,l2
STARLINK-1234,45190,53.0401,0.0005215,15.72863798,347.2077740154755,354.2259686032512,1 45190U 20012N   26148.89241499  .00087642  00000+0  63086-3 0  9993,2 45190  53.0401 289.7962 0005215 204.5233 155.5537 15.72863798348461
STARLINK-1269,45197,53.1567,0.0002558,15.33969969,462.23146758995244,465.73189550743245,1 45197U 20012V   26148.95565383  .00053401  00000+0  16020-2 0  9999,2 45197  53.1567  26.0556 0002558  96.5370 263.5923 15.33969969347216
STARLINK-1154,45198,53.0434,2.89e-05,15.62810685,379.34724983340857,379.7378437112111,1 45198U 20012W   26148.81352818  .00053065  00000+0  58028-3 0  9993,2 45198  53.0434 343.8177 0000289  28.6946 331.4084 15.62810685347745
STARLINK-1199,45201,53.1582,0.0001973,15.33909856,462.81045409303715,465.51042466261515,1 45201U 20012Z   26148.99164850  .00047661  00000+0  14348-2 0  9995,2 45201  53.1582  10.1522 0001973 158.0919 202.0168 15.33909856347464
STARLINK-1209,45206,53.0392,0.0008174,15.64760772,368.40772632268363,379.44600032644666,1 45206U 20012AE  26149.42747055  .00058630  00000+0  59203-3 0  9991,2 45206  53.0392 301.1668 0008174 198.0826 161.9899 15.64760772347507
STARLINK-1231,45212,53.041,0.0003868,15.27110318,481.8014024494187,487.11030428078266,1 45212U 20012AL  26149.58498139  .00030104  00000+0  11255-2 0  9991,2 45212  53.0410   2.3307 0003868  60.7541 299.3843 15.27110318347564
STARLINK-1271,45217,53.1575,0.0001529,15.34104079,462.53682218497215,464.6290201368638,1 45217U 20012AR  26148.99040642  .00037854  00000+0  11364-2 0  9992,2 45217  53.1575  10.2942 0001529 161.0002 199.1058 15.34104079347463
STARLINK-1191,45222,53.1562,0.0003408,15.38043944,449.56638497584936,454.2217341460473,1 45222U 20012AW  26149.51568571  .00057865  00000+0  15217-2 0  9998,2 45222  53.1562 341.1078 0003408 156.6643 203.4516 15.38043944347926
STARLINK-1212,45223,53.0402,0.0002624,15.66039161,368.4810230561425,372.0225774985274,1 45223U 20012AX  26149.58085699  .00057376  00000+0  55157-3 0  9996,2 45223  53.0402 316.1083 0002624 112.4698 247.6594 15.66039161348267
STARLINK-1215,45225,53.1576,0.0001387,15.34180072,462.40807544085965,464.30590587386723,1 45225U 20012AZ  26148.92510695  .00056995  00000+0  16970-2 0  9999,2 45225  53.1576 344.8734 0001387 203.1639 156.9301 15.34180072347777
STARLINK-1221,45227,53.0655,0.0001787,15.44498565,431.63471454479986,434.06896195559057,1 45227U 20012BB  26149.53687223  .00019696  00000+0  42614-3 0  9993,2 45227  53.0655 245.7055 0001787 272.3152  87.7649 15.44498565349197
STARLINK-1222,45228,53.0545,0.0001146,15.54414166,403.0788949178832,404.6333277390004,1 45228U 20012BC  26149.43835570  .00043698  00000+0  65767-3 0  9996,2 45228  53.0545 314.2180 0001146  20.9776 339.1281 15.54414166348163
STARLINK-1226,45229,53.1572,0.0002414,15.42839948,436.0870103738798,439.3777121014846,1 45229U 20012BD  26149.52853630  .00065404  00000+0  14658-2 0  9995,2 45229  53.1572 338.6795 0002414 191.1792 168.9161 15.42839948347851
STARLINK-1227,45230,53.1535,0.0002883,15.42952233,435.4367640244009,439.36660362949533,1 45230U 20012BE  26149.53905984  .00064507  00000+0  14405-2 0  9991,2 45230  53.1535 338.7475 0002883 188.4969 171.5989 15.42952233347977
STARLINK-1246,45235,53.1562,0.0002891,15.34082696,461.66853750626797,465.6244567243011,1 45235U 20012BK  26149.61375584  .00029913  00000+0  90188-3 0  9997,2 45235  53.1562  22.6083 0002891 155.6838 204.4301 15.34082696347372
STARLINK-1270,45237,53.0426,0.0001642,15.60248931,385.8266008594137,388.0482513009383,1 45237U 20012BM  26148.92443682  .00113567  00000+0  13535-2 0  9996,2 45237  53.0426 320.3465 0001642 175.2254 184.8774 15.60248931348143
STARLINK-1279,45360,53.0374,0.0008356,15.73053383,344.5540392163048,355.7983962657936,1 45360U 20019A   26148.99735310  .00095532  00000+0  68028-3 0  9998,2 45360  53.0374  64.0581 0008356  80.3969 279.7993 15.73053383343254
STARLINK-1301,45361,53.0372,0.0005769,15.75408358,339.59170756467574,347.3470970316466,1 45361U 20019B   26149.18001575  .00100266  00000+0  64514-3 0  9997,2 45361  53.0372  65.9512 0005769 102.3744 257.7921 15.75408358343253
STARLINK-1262,45366,53.1536,0.00044,15.3301726,463.80434430523474,469.82790305407343,1 45366U 20019G   26149.31793421  .00049092  00000+0  15191-2 0  9990,2 45366  53.1536 150.3811 0004400  37.5696 322.5613 15.33017260342102
STARLINK-1273,45367,53.0438,0.0006022,15.55748087,395.89712282233177,404.0606856173745,1 45367U 20019H   26149.31700657  .00088712  00000+0  12565-2 0  9994,2 45367  53.0438 127.7902 0006022  28.0740 332.0594 15.55748087342408
STARLINK-1277,45369,53.0422,0.0006185,15.62314824,376.7918358950201,385.15285415481594,1 45369U 20019K   26149.31147568  .00108614  00000+0  11956-2 0  9999,2 45369  53.0422 122.3176 0006185  18.1766 341.9467 15.62314824342487
STARLINK-1281,45370,53.1563,0.0004925,15.33924823,460.74612139935925,467.48574053636185,1 45370U 20019L   26149.40052510  .00050604  00000+0  15210-2 0  9995,2 45370  53.1563 149.6837 0004925  37.0766 323.0576 15.33924823342129
STARLINK-1300,45374,53.1557,0.0004748,15.34359997,459.5740527368007,466.0702275362746,1 45374U 20019Q   26149.41541460  .00057938  00000+0  17144-2 0  9992,2 45374  53.1557 149.5478 0004748  51.7504 308.3926 15.34359997342122
STARLINK-1302,45375,53.0447,0.0005568,15.66244159,365.9057701271913,373.42012014609554,1 45375U 20019R   26149.32772994  .00068506  00000+0  65091-3 0  9999,2 45375  53.0447 118.5470 0005568  38.3875 321.7536 15.66244159342530
STARLINK-1304,45376,53.0403,0.0006614,15.61488536,378.88454739865665,387.8286511317656,1 45376U 20019S   26149.30070536  .00095407  00000+0  10867-2 0  9991,2 45376  53.0403 119.6735 0006614  46.1903 313.9656 15.61488536342519
STARLINK-1305,45377,53.0375,0.0001619,15.70068591,357.6101015086633,359.79148958686164,1 45377U 20019T   26148.98897627  .00074647  00000+0  60631-3 0  9991,2 45377  53.0375 100.3654 0001619 150.3975 209.7133 15.70068591342766
STARLINK-1319,45379,53.0384,0.0004415,15.75623573,339.8899982548128,345.82463623694,1 45379U 20019V   26149.50009000  .00092537  00000+0  59092-3 0  9999,2 45379  53.0384  89.9309 0004415  59.9487 300.1969 15.75623573342952
STARLINK-1266,45383,53.0459,0.000163,15.64848234,372.5747261093966,374.7758169099079,1 45383U 20019Z   26149.58337963  .00035626  00000+0  36219-3 0  9996,2 45383  53.0459 103.4642 0001630 105.9836 202.2746 15.64848234  5927
STARLINK-1267,45384,53.045,0.0007539,15.64103327,370.7270025299558,380.91061709999485,1 45384U 20019AA  26149.23783378  .00104030  00000+0  10681-2 0  9994,2 45384  53.0450  96.3497 0007539  76.9431 283.2424 15.64103327342832
STARLINK-1272,45386,53.0398,0.0008141,15.68422563,357.9251259887915,368.901718386197,1 45386U 20019AC  26149.03036576  .00072502  00000+0  62953-3 0  9993,2 45386  53.0398  76.4574 0008141  62.9319 297.2527 15.68422563343098
STARLINK-1274,45387,53.0213,0.0008577,15.59735341,382.6187367225175,394.22609274254955,1 45387U 20019AD  26149.00552361  .00109116  00000+0  13252-2 0  9995,2 45387  53.0213  75.2232 0008577  90.4727 269.7268 15.59735341343104
STARLINK-1280,45388,53.038,0.0005204,15.76274315,337.51077048035313,344.5040559856461,1 45388U 20019AE  26149.19777722  .00104221  00000+0  64529-3 0  9992,2 45388  53.0380  83.8587 0005204  76.5541 283.6058 15.76274315342997
STARLINK-1283,45389,53.0404,0.0004061,15.69693013,357.0390949400171,362.5116273597432,1 45389U 20019AF  26149.18392950  .00072800  00000+0  60066-3 0  9997,2 45389  53.0404  74.8827 0004061  87.9491 272.1990 15.69693013343139
STARLINK-1284,45390,53.0408,0.0004916,15.68501604,359.8729022406869,366.50097193563124,1 45390U 20019AG  26148.30199093  .00066501  00000+0  57700-3 0  9997,2 45390  53.0408 103.0326 0004916  17.8778 342.2410 15.68501604342658
STARLINK-1297,45395,53.0412,0.0006655,15.67053461,362.85037091754657,371.8286001197712,1 45395U 20019AM  26149.51750062  .00062765  00000+0  57789-3 0  9990,2 45395  53.0412  95.9553 0006655  29.4000 330.7388 15.67053461342049
STARLINK-1307,45397,53.0526,0.0002582,15.55798354,398.08283344127085,401.58297710035185,1 45397U 20019AP  26149.24576729  .00045895  00000+0  65602-3 0  9996,2 45397  53.0526 102.3823 0002582  71.6033 288.5258 15.55798354342578
STARLINK-1255,45399,53.0342,0.0005652,15.64668974,370.3745374605387,378.0073689788587,1 45399U 20019AR  26149.02139688  .00061204  00000+0  62035-3 0  9992,2 45399  53.0342  72.0002 0005652  85.0725 275.0935 15.64668974342966
STARLINK-1260,45404,53.1552,0.0005832,15.36649552,452.0395722121639,460.0109390671414,1 45404U 20019AW  26149.26579909  .00056319  00000+0  15494-2 0  9996,2 45404  53.1552 113.2172 0005832  52.4951 307.6582 15.36649552342333
STARLINK-1263,45405,53.1576,0.0004551,15.34004624,460.76483208054196,466.99243471005775,1 45405U 20019AX  26149.28407504  .00053593  00000+0  16056-2 0  9996,2 45405  53.1576 114.2013 0004551  67.3684 292.7800 15.34004624342329
STARLINK-1265,45406,53.1555,0.0005381,15.37058084,451.137430845115,458.49105297165715,1 45406U 20019AY  26149.19559949  .00087344  00000+0  23563-2 0  9990,2 45406  53.1555 113.5617 0005381  45.3148 314.8294 15.37058084342327
STARLINK-1278,45408,53.0395,0.0007007,15.67944352,360.05933514815206,369.50886477764107,1 45408U 20019BA  26149.23071006  .00066014  00000+0  58567-3 0  9994,2 45408  53.0395  96.3663 0007007  51.4885 308.6758 15.67944352342558
STARLINK-1296,45412,53.1553,0.0006055,15.37283495,450.0093368991802,458.28323195662233,1 45412U 20019BE  26149.36663924  .00074842  00000+0  20090-2 0  9996,2 45412  53.1553 112.4655 0006055  41.9531 318.1935 15.37283495342357
STARLINK-1309,45414,53.0613,0.0006664,15.6708346,362.7582703894004,371.7485267125894,1 45414U 20019BG  26149.24528291  .00063886  00000+0  58734-3 0  9995,2 45414  53.0613  90.1485 0006664  27.1892 332.9471 15.67083460342622
